STARLINK-36572          
1 67536U 26014E   26036.25003472 -.00065138  00000+0 -34170-3 0  9992
2 67536  97.2814 279.5079 0001476 108.4558 184.7377 15.80825702  3477
STARLINK-36561          
1 67537U 26014F   26036.25003472 -.00181091  00000+0 -96158-3 0  9994
2 67537  97.2785 279.5083 0001393  96.3244 202.3693 15.80879360  3472
STARLINK-36397          
1 67538U 26014G   26036.25003472 -.01956063  00000+0 -13363-1 0  9990
2 67538  97.2783 279.5085 0001437  90.0694 209.8953 15.77970441  3471
STARLINK-36573          
1 67539U 26014H   26036.25003472 -.00056893  00000+0 -29798-3 0  9993
2 67539  97.2782 279.5131 0001681  98.7823 210.9641 15.80832379  3471
STARLINK-36585          
1 67540U 26014J   26036.25003472 -.00117051  00000+0 -61740-3 0  9992
2 67540  97.2783 279.5140 0001548 118.8479 196.2157 15.80856097  3478
STARLINK-36579          
1 67541U 26014K   26036.25003472 -.00170667  00000+0 -90476-3 0  9993
2 67541  97.2827 279.5181 0001387 115.9093 206.3889 15.80887949  3479
STARLINK-35934          
1 67542U 26014L   26036.25003472 -.00062841  00000+0 -32944-3 0  9994
2 67542  97.2776 279.5223 0001639 101.2952 229.1122 15.80832016  3469
STARLINK-36581          
1 67543U 26014M   26036.25003472 -.00107441  00000+0 -56630-3 0  9999
2 67543  97.2776 279.5235 0001590  78.9210 258.2872 15.80845758  3479
STARLINK-36565          
1 67544U 26014N   26036.25003472 -.00099318  00000+0 -52302-3 0  9995
2 67544  97.2801 279.5262 0001193 102.7607 240.4698 15.80843678  3472
STARLINK-36583          
1 67545U 26014P   26036.25003472 -.00222775  00000+0 -11886-2 0  9992
2 67545  97.2795 279.5280 0001477  89.1719 260.1224 15.80880090  3475
STARLINK-36580          
1 67546U 26014Q   26036.25003472 -.00079178  00000+0 -41596-3 0  9992
2 67546  97.2765 279.5302 0001600 104.0109 253.0653 15.80836902  3476
STARLINK-36584          
1 67547U 26014R   26036.25003472 -.00158160  00000+0 -83785-3 0  9998
2 67547  97.2765 279.5326 0001419  95.8678 266.6885 15.80871263  3475
