CCSDS_OMM_VERS = 2.0
CREATION_DATE  = 
ORIGINATOR     = 

OBJECT_NAME    = STARLINK-36572
OBJECT_ID      = 2026-014E
CENTER_NAME    = EARTH
REF_FRAME      = TEME
TIME_SYSTEM    = UTC
MEAN_ELEMENT_THEORY = SGP/SGP4

EPOCH          = 2026-02-05T06:00:02.999808
MEAN_MOTION    = 15.80825702
ECCENTRICITY   = .00014762
INCLINATION    = 97.2814
RA_OF_ASC_NODE = 279.5079
ARG_OF_PERICENTER = 108.4558
MEAN_ANOMALY   = 184.7377

EPHEMERIS_TYPE = 0
CLASSIFICATION_TYPE = U
NORAD_CAT_ID   = 67536
ELEMENT_SET_NO = 999
REV_AT_EPOCH   = 347
BSTAR          = -.34170277E-3
MEAN_MOTION_DOT = -.65138E-3
MEAN_MOTION_DDOT = 0

CCSDS_OMM_VERS = 2.0
CREATION_DATE  = 
ORIGINATOR     = 

OBJECT_NAME    = STARLINK-36561
OBJECT_ID      = 2026-014F
CENTER_NAME    = EARTH
REF_FRAME      = TEME
TIME_SYSTEM    = UTC
MEAN_ELEMENT_THEORY = SGP/SGP4

EPOCH          = 2026-02-05T06:00:02.999808
MEAN_MOTION    = 15.80879360
ECCENTRICITY   = .00013939
INCLINATION    = 97.2785
RA_OF_ASC_NODE = 279.5083
ARG_OF_PERICENTER = 96.3244
MEAN_ANOMALY   = 202.3693

EPHEMERIS_TYPE = 0
CLASSIFICATION_TYPE = U
NORAD_CAT_ID   = 67537
ELEMENT_SET_NO = 999
REV_AT_EPOCH   = 347
BSTAR          = -.9615813E-3
MEAN_MOTION_DOT = -.181091E-2
MEAN_MOTION_DDOT = 0

CCSDS_OMM_VERS = 2.0
CREATION_DATE  = 
ORIGINATOR     = 

OBJECT_NAME    = STARLINK-36397
OBJECT_ID      = 2026-014G
CENTER_NAME    = EARTH
REF_FRAME      = TEME
TIME_SYSTEM    = UTC
MEAN_ELEMENT_THEORY = SGP/SGP4

EPOCH          = 2026-02-05T06:00:02.999808
MEAN_MOTION    = 15.77970441
ECCENTRICITY   = .0001437
INCLINATION    = 97.2783
RA_OF_ASC_NODE = 279.5085
ARG_OF_PERICENTER = 90.0694
MEAN_ANOMALY   = 209.8953

EPHEMERIS_TYPE = 0
CLASSIFICATION_TYPE = U
NORAD_CAT_ID   = 67538
ELEMENT_SET_NO = 999
REV_AT_EPOCH   = 347
BSTAR          = -.13363107E-1
MEAN_MOTION_DOT = -.1956063E-1
MEAN_MOTION_DDOT = 0

CCSDS_OMM_VERS = 2.0
CREATION_DATE  = 
ORIGINATOR     = 

OBJECT_NAME    = STARLINK-36573
OBJECT_ID      = 2026-014H
CENTER_NAME    = EARTH
REF_FRAME      = TEME
TIME_SYSTEM    = UTC
MEAN_ELEMENT_THEORY = SGP/SGP4

EPOCH          = 2026-02-05T06:00:02.999808
MEAN_MOTION    = 15.80832379
ECCENTRICITY   = .00016811
INCLINATION    = 97.2782
RA_OF_ASC_NODE = 279.5131
ARG_OF_PERICENTER = 98.7823
MEAN_ANOMALY   = 210.9641

EPHEMERIS_TYPE = 0
CLASSIFICATION_TYPE = U
NORAD_CAT_ID   = 67539
ELEMENT_SET_NO = 999
REV_AT_EPOCH   = 347
BSTAR          = -.29797508E-3
MEAN_MOTION_DOT = -.56893E-3
MEAN_MOTION_DDOT = 0

CCSDS_OMM_VERS = 2.0
CREATION_DATE  = 
ORIGINATOR     = 

OBJECT_NAME    = STARLINK-36585
OBJECT_ID      = 2026-014J
CENTER_NAME    = EARTH
REF_FRAME      = TEME
TIME_SYSTEM    = UTC
MEAN_ELEMENT_THEORY = SGP/SGP4

EPOCH          = 2026-02-05T06:00:02.999808
MEAN_MOTION    = 15.80856097
ECCENTRICITY   = .00015484
INCLINATION    = 97.2783
RA_OF_ASC_NODE = 279.5140
ARG_OF_PERICENTER = 118.8479
MEAN_ANOMALY   = 196.2157

EPHEMERIS_TYPE = 0
CLASSIFICATION_TYPE = U
NORAD_CAT_ID   = 67540
ELEMENT_SET_NO = 999
REV_AT_EPOCH   = 347
BSTAR          = -.61740354E-3
MEAN_MOTION_DOT = -.117051E-2
MEAN_MOTION_DDOT = 0

CCSDS_OMM_VERS = 2.0
CREATION_DATE  = 
ORIGINATOR     = 

OBJECT_NAME    = STARLINK-36579
OBJECT_ID      = 2026-014K
CENTER_NAME    = EARTH
REF_FRAME      = TEME
TIME_SYSTEM    = UTC
MEAN_ELEMENT_THEORY = SGP/SGP4

EPOCH          = 2026-02-05T06:00:02.999808
MEAN_MOTION    = 15.80887949
ECCENTRICITY   = .00013875
INCLINATION    = 97.2827
RA_OF_ASC_NODE = 279.5181
ARG_OF_PERICENTER = 115.9093
MEAN_ANOMALY   = 206.3889

EPHEMERIS_TYPE = 0
CLASSIFICATION_TYPE = U
NORAD_CAT_ID   = 67541
ELEMENT_SET_NO = 999
REV_AT_EPOCH   = 347
BSTAR          = -.90475778E-3
MEAN_MOTION_DOT = -.170667E-2
MEAN_MOTION_DDOT = 0

CCSDS_OMM_VERS = 2.0
CREATION_DATE  = 
ORIGINATOR     = 

OBJECT_NAME    = STARLINK-35934
OBJECT_ID      = 2026-014L
CENTER_NAME    = EARTH
REF_FRAME      = TEME
TIME_SYSTEM    = UTC
MEAN_ELEMENT_THEORY = SGP/SGP4

EPOCH          = 2026-02-05T06:00:02.999808
MEAN_MOTION    = 15.80832016
ECCENTRICITY   = .0001639
INCLINATION    = 97.2776
RA_OF_ASC_NODE = 279.5223
ARG_OF_PERICENTER = 101.2952
MEAN_ANOMALY   = 229.1122

EPHEMERIS_TYPE = 0
CLASSIFICATION_TYPE = U
NORAD_CAT_ID   = 67542
ELEMENT_SET_NO = 999
REV_AT_EPOCH   = 346
BSTAR          = -.32943704E-3
MEAN_MOTION_DOT = -.62841E-3
MEAN_MOTION_DDOT = 0

CCSDS_OMM_VERS = 2.0
CREATION_DATE  = 
ORIGINATOR     = 

OBJECT_NAME    = STARLINK-36581
OBJECT_ID      = 2026-014M
CENTER_NAME    = EARTH
REF_FRAME      = TEME
TIME_SYSTEM    = UTC
MEAN_ELEMENT_THEORY = SGP/SGP4

EPOCH          = 2026-02-05T06:00:02.999808
MEAN_MOTION    = 15.80845758
ECCENTRICITY   = .00015904
INCLINATION    = 97.2776
RA_OF_ASC_NODE = 279.5235
ARG_OF_PERICENTER = 78.9210
MEAN_ANOMALY   = 258.2872

EPHEMERIS_TYPE = 0
CLASSIFICATION_TYPE = U
NORAD_CAT_ID   = 67543
ELEMENT_SET_NO = 999
REV_AT_EPOCH   = 347
BSTAR          = -.56629532E-3
MEAN_MOTION_DOT = -.107441E-2
MEAN_MOTION_DDOT = 0

CCSDS_OMM_VERS = 2.0
CREATION_DATE  = 
ORIGINATOR     = 

OBJECT_NAME    = STARLINK-36565
OBJECT_ID      = 2026-014N
CENTER_NAME    = EARTH
REF_FRAME      = TEME
TIME_SYSTEM    = UTC
MEAN_ELEMENT_THEORY = SGP/SGP4

EPOCH          = 2026-02-05T06:00:02.999808
MEAN_MOTION    = 15.80843678
ECCENTRICITY   = .00011937
INCLINATION    = 97.2801
RA_OF_ASC_NODE = 279.5262
ARG_OF_PERICENTER = 102.7607
MEAN_ANOMALY   = 240.4698

EPHEMERIS_TYPE = 0
CLASSIFICATION_TYPE = U
NORAD_CAT_ID   = 67544
ELEMENT_SET_NO = 999
REV_AT_EPOCH   = 347
BSTAR          = -.52302178E-3
MEAN_MOTION_DOT = -.99318E-3
MEAN_MOTION_DDOT = 0

CCSDS_OMM_VERS = 2.0
CREATION_DATE  = 
ORIGINATOR     = 

OBJECT_NAME    = STARLINK-36583
OBJECT_ID      = 2026-014P
CENTER_NAME    = EARTH
REF_FRAME      = TEME
TIME_SYSTEM    = UTC
MEAN_ELEMENT_THEORY = SGP/SGP4

EPOCH          = 2026-02-05T06:00:02.999808
MEAN_MOTION    = 15.80880090
ECCENTRICITY   = .00014778
INCLINATION    = 97.2795
RA_OF_ASC_NODE = 279.5280
ARG_OF_PERICENTER = 89.1719
MEAN_ANOMALY   = 260.1224

EPHEMERIS_TYPE = 0
CLASSIFICATION_TYPE = U
NORAD_CAT_ID   = 67545
ELEMENT_SET_NO = 999
REV_AT_EPOCH   = 347
BSTAR          = -.11886373E-2
MEAN_MOTION_DOT = -.222775E-2
MEAN_MOTION_DDOT = 0

CCSDS_OMM_VERS = 2.0
CREATION_DATE  = 
ORIGINATOR     = 

OBJECT_NAME    = STARLINK-36580
OBJECT_ID      = 2026-014Q
CENTER_NAME    = EARTH
REF_FRAME      = TEME
TIME_SYSTEM    = UTC
MEAN_ELEMENT_THEORY = SGP/SGP4

EPOCH          = 2026-02-05T06:00:02.999808
MEAN_MOTION    = 15.80836902
ECCENTRICITY   = .00016004
INCLINATION    = 97.2765
RA_OF_ASC_NODE = 279.5302
ARG_OF_PERICENTER = 104.0109
MEAN_ANOMALY   = 253.0653

EPHEMERIS_TYPE = 0
CLASSIFICATION_TYPE = U
NORAD_CAT_ID   = 67546
ELEMENT_SET_NO = 999
REV_AT_EPOCH   = 347
BSTAR          = -.41596175E-3
MEAN_MOTION_DOT = -.79178E-3
MEAN_MOTION_DDOT = 0

CCSDS_OMM_VERS = 2.0
CREATION_DATE  = 
ORIGINATOR     = 

OBJECT_NAME    = STARLINK-36584
OBJECT_ID      = 2026-014R
CENTER_NAME    = EARTH
REF_FRAME      = TEME
TIME_SYSTEM    = UTC
MEAN_ELEMENT_THEORY = SGP/SGP4

EPOCH          = 2026-02-05T06:00:02.999808
MEAN_MOTION    = 15.80871263
ECCENTRICITY   = .00014193
INCLINATION    = 97.2765
RA_OF_ASC_NODE = 279.5326
ARG_OF_PERICENTER = 95.8678
MEAN_ANOMALY   = 266.6885

EPHEMERIS_TYPE = 0
CLASSIFICATION_TYPE = U
NORAD_CAT_ID   = 67547
ELEMENT_SET_NO = 999
REV_AT_EPOCH   = 347
BSTAR          = -.83784692E-3
MEAN_MOTION_DOT = -.15816E-2
MEAN_MOTION_DDOT = 0

